STARLINK-35759          
1 69246U 26117J   26168.67478256  .00198956  00000+0  93579-3 0  9995
2 69246  53.1569 241.0219 0000787  93.2044 266.9069 15.82057442  3055
STARLINK-37238          
1 69247U 26117K   26169.68113789  .00118232  00000+0  56157-3 0  9995
2 69247  53.1566 235.9170 0001715 157.5395 202.5704 15.82100392  3219
STARLINK-37412          
1 69248U 26117L   26168.66697015  .00143764  00000+0  68183-3 0  9992
2 69248  53.1569 240.9688 0000941 105.8871 254.2256 15.82046207  3050
STARLINK-37398          
1 69249U 26117M   26169.68313926  .00218401  00000+0  10720-2 0  9996
2 69249  53.1570 235.9299 0001352 159.6878 200.4199 15.81081460  3212
STARLINK-37499          
1 69250U 26117N   26169.67604895  .00215272  00000+0  10100-2 0  9990
2 69250  53.1562 235.8812 0001514 143.3754 216.7373 15.82065478  3214
STARLINK-37489          
1 69251U 26117P   26168.66349250  .00206986  00000+0  97205-3 0  9994
2 69251  53.1571 240.9461 0000794 102.7922 257.3191 15.82067811  3051
STARLINK-37434          
1 69252U 26117Q   26169.48179806  .00332686  00000+0  15431-2 0  9991
2 69252  53.1566 236.8020 0001189  78.2122 281.9034 15.81991877  3189
STARLINK-37368          
1 69253U 26117R   26169.66457836  .00321778  00000+0  14891-2 0  9993
2 69253  53.1568 235.8046 0001214  60.3984 299.7160 15.82070057  3216
STARLINK-37517          
1 69254U 26117S   26169.53690708  .00298563  00000+0  13868-2 0  9995
2 69254  53.1564 236.4298 0000573 265.6130  94.4827 15.82052229  3197
STARLINK-37378          
1 69255U 26117T   26169.47340454  .00211044  00000+0  99420-3 0  9997
2 69255  53.1568 236.7448 0002332 301.5590  58.5205 15.81988256  3184
STARLINK-37396          
1 69256U 26117U   26169.53412058  .00296336  00000+0  13689-2 0  9994
2 69256  53.1561 236.4093 0003181 269.7331  90.3327 15.82175115  3195
STARLINK-37508          
1 69257U 26117V   26169.66367073  .00197395  00000+0  97804-3 0  9992
2 69257  53.1569 235.7957 0000963  66.4376 293.6747 15.80937367  3211
STARLINK-37276          
1 69258U 26117W   26169.33335647 -.00055338  00000+0 -27824-3 0  9996
2 69258  53.1573 237.1329 0001254 110.4662 322.1664 15.80901734  4359
STARLINK-37518          
1 69259U 26117X   26169.51151375  .00249447  00000+0  12214-2 0  9991
2 69259  53.1566 236.2552 0001957   6.0632 354.0414 15.81045726  3196
STARLINK-37478          
1 69260U 26117Y   26169.51173714  .00271160  00000+0  13233-2 0  9993
2 69260  53.1571 236.2570 0001815 341.6553  18.4404 15.81059198  3195
STARLINK-37506          
1 69261U 26117Z   26169.75002315  .00025232  00000+0  13100-3 0  9999
2 69261  53.1567 235.0571 0001162  63.8786 215.9346 15.80874166  4431
STARLINK-37503          
1 69262U 26117AA  26169.57421171  .00251751  00000+0  12388-2 0  9998
2 69262  53.1570 235.9337 0001786  31.7792 328.3338 15.80932098  3201
STARLINK-37502          
1 69263U 26117AB  26169.51047537  .00216159  00000+0  10701-2 0  9993
2 69263  53.1572 236.2469 0001049  30.5534 329.5550 15.80902489  3195
STARLINK-37486          
1 69264U 26117AC  26169.50925625  .00219764  00000+0  10813-2 0  9995
2 69264  53.1569 236.2391 0001312 350.0645  10.0352 15.81024711  3198
STARLINK-37435          
1 69265U 26117AD  26169.51074363  .00248678  00000+0  12247-2 0  9990
2 69265  53.1570 236.2476 0001260  18.7065 341.4004 15.80923316  3194
STARLINK-37464          
1 69266U 26117AE  26169.44218160  .00267033  00000+0  12498-2 0  9992
2 69266  53.1571 236.5279 0001829  39.5248 320.5909 15.81973336  3184
KUIPER-00282            
1 69267U 26118A   26169.65526979  .00015248  00000+0  46296-3 0  9990
2 69267  51.8600  46.5005 0012096 187.1324 172.9491 15.34213860  4208
KUIPER-00383            
1 69268U 26118B   26169.65214100  .00047270  00000+0  14024-2 0  9994
2 69268  51.8600  46.4809 0011180 189.7780 170.2989 15.34292173  4204
KUIPER-00527            
1 69269U 26118C   26169.64703345  .00013601  00000+0  40736-3 0  9999
2 69269  51.8626  46.4519 0010074 179.1243 180.9762 15.34768537  4208
KUIPER-00562            
1 69270U 26118D   26169.61019420  .00018066  00000+0  47465-3 0  9998
2 69270  51.8721  46.2156 0001881 128.5251 231.5905 15.38665195  4206
KUIPER-00570            
1 69271U 26118E   26169.64948633  .00015729  00000+0  47094-3 0  9990
2 69271  51.8587  46.4619 0011581 190.0741 170.0014 15.34636501  4202
KUIPER-00572            
1 69272U 26118F   26169.63096288  .00016481  00000+0  45701-3 0  9999
2 69272  51.8675  46.3549 0007176 175.5361 184.5691 15.37046078  4201
KUIPER-00581            
1 69273U 26118G   26169.63524455  .00015572  00000+0  43743-3 0  9996
2 69273  51.8659  46.3804 0008806 179.5693 180.5302 15.36675964  4296
KUIPER-00584            
1 69274U 26118H   26169.65232058 -.00652156  00000+0 -21509-1 0  9995
2 69274  51.8615  46.4833 0011467 163.7002 196.4354 15.33128289  4202
KUIPER-00587            
1 69275U 26118J   26169.63455352  .00016724  00000+0  46828-3 0  9994
2 69275  51.8631  46.3730 0008137 182.6870 177.4074 15.36723628  4208
